{
  "type": "FeatureCollection",
  "features": [
    {
      "type": "Feature",
      "geometry": {
        "type": "Polygon",
        "coordinates": [
          [
            [
              29.599999999999998,
              -1.1
            ],
            [
              29.8,
              -1.1
            ],
            [
              29.8,
              -1
            ],
            [
              29.599999999999998,
              -1
            ],
            [
              29.599999999999998,
              -1.1
            ]
          ]
        ]
      },
      "properties": {
        "id": "bwindi-impenetrable"
      }
    },
    {
      "type": "Feature",
      "geometry": {
        "type": "Polygon",
        "coordinates": [
          [
            [
              29.549999999999997,
              -1.4200000000000002
            ],
            [
              29.75,
              -1.4200000000000002
            ],
            [
              29.75,
              -1.32
            ],
            [
              29.549999999999997,
              -1.32
            ],
            [
              29.549999999999997,
              -1.4200000000000002
            ]
          ]
        ]
      },
      "properties": {
        "id": "mgahinga-gorilla"
      }
    },
    {
      "type": "Feature",
      "geometry": {
        "type": "Polygon",
        "coordinates": [
          [
            [
              29.9,
              -0.25
            ],
            [
              30.1,
              -0.25
            ],
            [
              30.1,
              -0.15000000000000002
            ],
            [
              29.9,
              -0.15000000000000002
            ],
            [
              29.9,
              -0.25
            ]
          ]
        ]
      },
      "properties": {
        "id": "queen-elizabeth"
      }
    },
    {
      "type": "Feature",
      "geometry": {
        "type": "Polygon",
        "coordinates": [
          [
            [
              31.669999999999998,
              2.22
            ],
            [
              31.87,
              2.22
            ],
            [
              31.87,
              2.32
            ],
            [
              31.669999999999998,
              2.32
            ],
            [
              31.669999999999998,
              2.22
            ]
          ]
        ]
      },
      "properties": {
        "id": "murchison-falls"
      }
    },
    {
      "type": "Feature",
      "geometry": {
        "type": "Polygon",
        "coordinates": [
          [
            [
              30.299999999999997,
              0.45
            ],
            [
              30.5,
              0.45
            ],
            [
              30.5,
              0.55
            ],
            [
              30.299999999999997,
              0.55
            ],
            [
              30.299999999999997,
              0.45
            ]
          ]
        ]
      },
      "properties": {
        "id": "kibale"
      }
    },
    {
      "type": "Feature",
      "geometry": {
        "type": "Polygon",
        "coordinates": [
          [
            [
              30,
              0.7999999999999999
            ],
            [
              30.200000000000003,
              0.7999999999999999
            ],
            [
              30.200000000000003,
              0.9
            ],
            [
              30,
              0.9
            ],
            [
              30,
              0.7999999999999999
            ]
          ]
        ]
      },
      "properties": {
        "id": "semuliki"
      }
    },
    {
      "type": "Feature",
      "geometry": {
        "type": "Polygon",
        "coordinates": [
          [
            [
              29.88,
              0.33
            ],
            [
              30.080000000000002,
              0.33
            ],
            [
              30.080000000000002,
              0.43
            ],
            [
              29.88,
              0.43
            ],
            [
              29.88,
              0.33
            ]
          ]
        ]
      },
      "properties": {
        "id": "rwenzori-mountains"
      }
    },
    {
      "type": "Feature",
      "geometry": {
        "type": "Polygon",
        "coordinates": [
          [
            [
              30.869999999999997,
              -0.66
            ],
            [
              31.07,
              -0.66
            ],
            [
              31.07,
              -0.5599999999999999
            ],
            [
              30.869999999999997,
              -0.5599999999999999
            ],
            [
              30.869999999999997,
              -0.66
            ]
          ]
        ]
      },
      "properties": {
        "id": "lake-mburo"
      }
    },
    {
      "type": "Feature",
      "geometry": {
        "type": "Polygon",
        "coordinates": [
          [
            [
              33.76,
              3.87
            ],
            [
              33.96,
              3.87
            ],
            [
              33.96,
              3.9699999999999998
            ],
            [
              33.76,
              3.9699999999999998
            ],
            [
              33.76,
              3.87
            ]
          ]
        ]
      },
      "properties": {
        "id": "kidepo-valley"
      }
    },
    {
      "type": "Feature",
      "geometry": {
        "type": "Polygon",
        "coordinates": [
          [
            [
              34.07,
              1.07
            ],
            [
              34.27,
              1.07
            ],
            [
              34.27,
              1.1700000000000002
            ],
            [
              34.07,
              1.1700000000000002
            ],
            [
              34.07,
              1.07
            ]
          ]
        ]
      },
      "properties": {
        "id": "mount-elgon"
      }
    }
  ]
}
